{
  "type": "FeatureCollection",
  "features": [
    {
      "type": "Feature",
      "properties": {
        "norad_id": 33939,
        "name": "COSMOS 2251 DEB",
        "group": "cosmos-2251-debris",
        "lat": -14.962779345083696,
        "lon": 77.24626234916495,
        "alt_km": 571.0648770637981,
        "timestamp": "2025-12-12T05:47:29.164504+00:00",
        "meta_object_name": "COSMOS 2251 DEB",
        "meta_object_id": "1993-036EU",
        "meta_epoch": "2025-12-11T09:02:57.474240",
        "meta_mean_motion": 14.99741717,
        "meta_eccentricity": 0.0003448,
        "meta_inclination": 74.0065,
        "meta_ra_of_asc_node": 83.4008,
        "meta_arg_of_pericenter": 62.6749,
        "meta_mean_anomaly": 297.4788,
        "meta_ephemeris_type": 0,
        "meta_classification_type": "U",
        "meta_norad_cat_id": 33939,
        "meta_element_set_no": 999,
        "meta_rev_at_epoch": 88732,
        "meta_bstar": 0.0068543545,
        "meta_mean_motion_dot": 0.00085715,
        "meta_mean_motion_ddot": 0,
        "tle_line1": "1 33939U 93036EU  25345.37705410  .00085715  00000+0  68544-2 0  9998",
        "tle_line2": "2 33939  74.0065  83.4008 0003448  62.6749 297.4788 14.99741717887320"
      },
      "geometry": {
        "type": "Point",
        "coordinates": [
          77.24626234916495,
          -14.962779345083696
        ]
      }
    },
    {
      "type": "Feature",
      "properties": {
        "norad_id": 33940,
        "name": "COSMOS 2251 DEB",
        "group": "cosmos-2251-debris",
        "lat": -8.365807690087113,
        "lon": -33.14182368275006,
        "alt_km": 694.2110946397788,
        "timestamp": "2025-12-12T05:47:29.164514+00:00",
        "meta_object_name": "COSMOS 2251 DEB",
        "meta_object_id": "1993-036EV",
        "meta_epoch": "2025-12-11T21:23:23.090208",
        "meta_mean_motion": 14.58781077,
        "meta_eccentricity": 0.00113644,
        "meta_inclination": 74.0397,
        "meta_ra_of_asc_node": 145.1124,
        "meta_arg_of_pericenter": 224.9079,
        "meta_mean_anomaly": 286.0732,
        "meta_ephemeris_type": 0,
        "meta_classification_type": "U",
        "meta_norad_cat_id": 33940,
        "meta_element_set_no": 999,
        "meta_rev_at_epoch": 88581,
        "meta_bstar": 0.0018002068,
        "meta_mean_motion_dot": 8.401e-05,
        "meta_mean_motion_ddot": 0,
        "tle_line1": "1 33940U 93036EV  25345.89123947  .00008401  00000+0  18002-2 0  9997",
        "tle_line2": "2 33940  74.0397 145.1124 0011364 224.9079 286.0732 14.58781077885813"
      },
      "geometry": {
        "type": "Point",
        "coordinates": [
          -33.14182368275006,
          -8.365807690087113
        ]
      }
    },
    {
      "type": "Feature",
      "properties": {
        "norad_id": 33942,
        "name": "COSMOS 2251 DEB",
        "group": "cosmos-2251-debris",
        "lat": 59.274282099561525,
        "lon": -55.46408344897808,
        "alt_km": 752.7658116981802,
        "timestamp": "2025-12-12T05:47:29.164524+00:00",
        "meta_object_name": "COSMOS 2251 DEB",
        "meta_object_id": "1993-036EX",
        "meta_epoch": "2025-12-11T23:08:58.461792",
        "meta_mean_motion": 14.37987106,
        "meta_eccentricity": 0.00202772,
        "meta_inclination": 74.0366,
        "meta_ra_of_asc_node": 276.2561,
        "meta_arg_of_pericenter": 359.6843,
        "meta_mean_anomaly": 71.4925,
        "meta_ephemeris_type": 0,
        "meta_classification_type": "U",
        "meta_norad_cat_id": 33942,
        "meta_element_set_no": 999,
        "meta_rev_at_epoch": 88123,
        "meta_bstar": 0.00038510332,
        "meta_mean_motion_dot": 1.141e-05,
        "meta_mean_motion_ddot": 0,
        "tle_line1": "1 33942U 93036EX  25345.96456553  .00001141  00000+0  38510-3 0  9990",
        "tle_line2": "2 33942  74.0366 276.2561 0020277 359.6843  71.4925 14.37987106881230"
      },
      "geometry": {
        "type": "Point",
        "coordinates": [
          -55.46408344897808,
          59.274282099561525
        ]
      }
    },
    {
      "type": "Feature",
      "properties": {
        "norad_id": 33944,
        "name": "COSMOS 2251 DEB",
        "group": "cosmos-2251-debris",
        "lat": -58.42270102576808,
        "lon": -77.90450404003265,
        "alt_km": 803.190195774605,
        "timestamp": "2025-12-12T05:47:29.164534+00:00",
        "meta_object_name": "COSMOS 2251 DEB",
        "meta_object_id": "1993-036EZ",
        "meta_epoch": "2025-12-11T23:42:42.732576",
        "meta_mean_motion": 14.37340754,
        "meta_eccentricity": 0.01121711,
        "meta_inclination": 74.0402,
        "meta_ra_of_asc_node": 310.309,
        "meta_arg_of_pericenter": 50.1071,
        "meta_mean_anomaly": 18.5228,
        "meta_ephemeris_type": 0,
        "meta_classification_type": "U",
        "meta_norad_cat_id": 33944,
        "meta_element_set_no": 999,
        "meta_rev_at_epoch": 88017,
        "meta_bstar": 0.00053829725,
        "meta_mean_motion_dot": 1.701e-05,
        "meta_mean_motion_ddot": 0,
        "tle_line1": "1 33944U 93036EZ  25345.98799459  .00001701  00000+0  53830-3 0  9993",
        "tle_line2": "2 33944  74.0402 310.3090 0112171  50.1071  18.5228 14.37340754880173"
      },
      "geometry": {
        "type": "Point",
        "coordinates": [
          -77.90450404003265,
          -58.42270102576808
        ]
      }
    },
    {
      "type": "Feature",
      "properties": {
        "norad_id": 33945,
        "name": "COSMOS 2251 DEB",
        "group": "cosmos-2251-debris",
        "lat": 72.64953277550893,
        "lon": 60.74909425723264,
        "alt_km": 761.9698725224071,
        "timestamp": "2025-12-12T05:47:29.164545+00:00",
        "meta_object_name": "COSMOS 2251 DEB",
        "meta_object_id": "1993-036FA",
        "meta_epoch": "2025-12-12T00:19:21.512352",
        "meta_mean_motion": 14.34600059,
        "meta_eccentricity": 0.00218627,
        "meta_inclination": 74.0297,
        "meta_ra_of_asc_node": 307.5978,
        "meta_arg_of_pericenter": 34.1614,
        "meta_mean_anomaly": 326.094,
        "meta_ephemeris_type": 0,
        "meta_classification_type": "U",
        "meta_norad_cat_id": 33945,
        "meta_element_set_no": 999,
        "meta_rev_at_epoch": 88005,
        "meta_bstar": 0.00022978314,
        "meta_mean_motion_dot": 6.25e-06,
        "meta_mean_motion_ddot": 0,
        "tle_line1": "1 33945U 93036FA  25346.01344343  .00000625  00000+0  22978-3 0  9990",
        "tle_line2": "2 33945  74.0297 307.5978 0021862  34.1614 326.0940 14.34600059880059"
      },
      "geometry": {
        "type": "Point",
        "coordinates": [
          60.74909425723264,
          72.64953277550893
        ]
      }
    },
    {
      "type": "Feature",
      "properties": {
        "norad_id": 33948,
        "name": "COSMOS 2251 DEB",
        "group": "cosmos-2251-debris",
        "lat": -53.38637704770383,
        "lon": -76.61093289673438,
        "alt_km": 776.3694530013408,
        "timestamp": "2025-12-12T05:47:29.164555+00:00",
        "meta_object_name": "COSMOS 2251 DEB",
        "meta_object_id": "1993-036FD",
        "meta_epoch": "2025-12-11T23:21:51.282144",
        "meta_mean_motion": 14.35627857,
        "meta_eccentricity": 0.00226835,
        "meta_inclination": 74.0356,
        "meta_ra_of_asc_node": 306.5398,
        "meta_arg_of_pericenter": 22.6023,
        "meta_mean_anomaly": 337.6124,
        "meta_ephemeris_type": 0,
        "meta_classification_type": "U",
        "meta_norad_cat_id": 33948,
        "meta_element_set_no": 999,
        "meta_rev_at_epoch": 88012,
        "meta_bstar": 0.0003214852,
        "meta_mean_motion_dot": 9.04e-06,
        "meta_mean_motion_ddot": 0,
        "tle_line1": "1 33948U 93036FD  25345.97351021  .00000904  00000+0  32149-3 0  9999",
        "tle_line2": "2 33948  74.0356 306.5398 0022683  22.6023 337.6124 14.35627857880127"
      },
      "geometry": {
        "type": "Point",
        "coordinates": [
          -76.61093289673438,
          -53.38637704770383
        ]
      }
    },
    {
      "type": "Feature",
      "properties": {
        "norad_id": 33971,
        "name": "COSMOS 2251 DEB",
        "group": "cosmos-2251-debris",
        "lat": 3.965453328444519,
        "lon": -104.20784824770077,
        "alt_km": 748.4318495970583,
        "timestamp": "2025-12-12T05:47:29.164565+00:00",
        "meta_object_name": "COSMOS 2251 DEB",
        "meta_object_id": "1993-036FE",
        "meta_epoch": "2025-12-11T21:46:57.656064",
        "meta_mean_motion": 14.39723294,
        "meta_eccentricity": 0.00185234,
        "meta_inclination": 74.0251,
        "meta_ra_of_asc_node": 255.2708,
        "meta_arg_of_pericenter": 355.9329,
        "meta_mean_anomaly": 79.4123,
        "meta_ephemeris_type": 0,
        "meta_classification_type": "U",
        "meta_norad_cat_id": 33971,
        "meta_element_set_no": 999,
        "meta_rev_at_epoch": 88127,
        "meta_bstar": 0.00044911017,
        "meta_mean_motion_dot": 1.383e-05,
        "meta_mean_motion_ddot": 0,
        "tle_line1": "1 33971U 93036FE  25345.90761176  .00001383  00000+0  44911-3 0  9996",
        "tle_line2": "2 33971  74.0251 255.2708 0018523 355.9329  79.4123 14.39723294881274"
      },
      "geometry": {
        "type": "Point",
        "coordinates": [
          -104.20784824770077,
          3.965453328444519
        ]
      }
    }
  ]
}